     2.11           N: GPS NAV DATA                         RINEX VERSION / TYPE
teqc  2018Mar15                         20180319 14:17:32UTCPGM / RUN BY / DATE
Linux 2.6.32-573.12.1.x86_64|x86_64|gcc -static|Linux 64|=+ COMMENT
    1.0245D-08  0.0000D+00 -5.9605D-08  0.0000D+00          ION ALPHA
    9.0112D+04  0.0000D+00 -1.9661D+05  0.0000D+00          ION BETA
   -1.862645149231D-09-6.217248937901D-15   233472      200 DELTA-UTC: A0,A1,T,W
                                                            END OF HEADER
 1 18  3 11 14  0  0.0-3.351271152496D-05-2.273736754432D-12 0.000000000000D+00
    7.200000000000D+01-7.568750000000D+01 4.304822170265D-09 1.143720273592D+00
   -4.021450877190D-06 7.428407901898D-03 6.971880793571D-06 5.153675525665D+03
    5.040000000000D+04-4.097819328308D-08-1.368635747641D+00 7.264316082001D-08
    9.701646773101D-01 2.507187500000D+02 6.106908658401D-01-8.066764584553D-09
   -5.857386840816D-11 1.000000000000D+00 1.992000000000D+03 0.000000000000D+00
    2.000000000000D+00 0.000000000000D+00 5.587935447693D-09 7.200000000000D+01
    4.348800000000D+04 4.000000000000D+00
11 18  3 11 14  0  0.0-7.372582331300D-04-2.273736754432D-13 0.000000000000D+00
    7.300000000000D+01-6.062500000000D+01 6.012393297457D-09 4.206276127141D-01
   -3.319233655930D-06 1.672581338789D-02 4.550442099571D-06 5.153617227554D+03
    5.040000000000D+04-1.434236764908D-07-1.790652575159D+00-2.011656761169D-07
    9.041314839740D-01 2.649375000000D+02 1.743300178604D+00-9.208240703043D-09
   -4.750197864808D-11 1.000000000000D+00 1.992000000000D+03 0.000000000000D+00
    2.000000000000D+00 0.000000000000D+00-1.210719347000D-08 7.300000000000D+01
    4.323600000000D+04 4.000000000000D+00
15 18  3 11 14  0  0.0-3.564949147403D-04 3.410605131648D-13 0.000000000000D+00
    5.100000000000D+01 1.109375000000D+01 5.596304537118D-09 2.458633205999D+00
    4.619359970093D-07 1.018704089802D-02 6.616115570068D-06 5.153697496414D+03
    5.040000000000D+04-1.341104507446D-07 6.393424119320D-01-1.545995473862D-07
    9.285631843495D-01 2.356875000000D+02 6.715247824912D-01-8.344633301757D-09
    2.714398779890D-11 1.000000000000D+00 1.992000000000D+03 0.000000000000D+00
    2.000000000000D+00 0.000000000000D+00-1.071020960808D-08 5.100000000000D+01
    4.321800000000D+04 4.000000000000D+00
24 18  3 11 14  0  0.0-4.713563248515D-05-4.547473508865D-13 0.000000000000D+00
    9.600000000000D+01 1.968750000000D+01 5.067711090508D-09 1.382506917431D+00
    1.175329089165D-06 6.873951293528D-03 8.048489689827D-06 5.153654756546D+03
    5.040000000000D+04-2.048909664154D-08 1.728051375933D+00 1.247972249985D-07
    9.420573484470D-01 2.153750000000D+02 5.344451423340D-01-8.300702900451D-09
   -4.468043254793D-10 1.000000000000D+00 1.992000000000D+03 0.000000000000D+00
    2.800000000000D+00 0.000000000000D+00 2.793967723846D-09 9.600000000000D+01
    4.348800000000D+04 4.000000000000D+00
13 18  3 11 14  0  0.0-9.554298594594D-05 1.136868377216D-13 0.000000000000D+00
    4.200000000000D+01 1.206250000000D+01 4.665194324069D-09 1.883516983677D+00
    5.513429641724D-07 3.633706597611D-03 6.634742021561D-06 5.153653661728D+03
    5.040000000000D+04-5.587935447693D-09 8.387112928119D-01-5.401670932770D-08
    9.686635624398D-01 2.550312500000D+02 1.615788784866D+00-7.984261147953D-09
   -9.536111503035D-11 1.000000000000D+00 1.992000000000D+03 0.000000000000D+00
    2.000000000000D+00 0.000000000000D+00-1.117587089539D-08 4.200000000000D+01
    4.323600000000D+04 4.000000000000D+00
28 18  3 11 14  0  0.0 6.960914470255D-04 3.524291969370D-12 0.000000000000D+00
    7.400000000000D+01 6.431250000000D+01 3.639437311458D-09-2.083921157052D+00
    3.444030880928D-06 1.962360087782D-02 7.323920726776D-06 5.153679903030D+03
    5.040000000000D+04 3.129243850708D-07 2.900433253178D+00 2.179294824600D-07
    9.868005384434D-01 2.508750000000D+02-1.523580440978D+00-7.466739591103D-09
   -2.642967233051D-11 1.000000000000D+00 1.992000000000D+03 0.000000000000D+00
    4.000000000000D+00 0.000000000000D+00-1.117587089539D-08 7.400000000000D+01
    4.348800000000D+04 4.000000000000D+00
10 18  3 11 14  0  0.0 1.690513454378D-04 3.865352482535D-12 0.000000000000D+00
    7.500000000000D+01-1.446875000000D+01 4.541617748037D-09-9.363629193426D-01
   -7.208436727524D-07 3.364750882611D-03 9.175390005112D-06 5.153665983200D+03
    5.040000000000D+04 6.332993507385D-08-3.292716833959D-01 7.450580596924D-09
    9.612296930179D-01 2.007812500000D+02-2.795863607010D+00-7.918186967127D-09
    3.775157250453D-10 1.000000000000D+00 1.992000000000D+03 0.000000000000D+00
    2.000000000000D+00 0.000000000000D+00 1.862645149231D-09 7.500000000000D+01
    4.348800000000D+04 4.000000000000D+00
17 18  3 11 13 59 44.0-1.166164875031D-04 3.069544618484D-12 0.000000000000D+00
    4.200000000000D+01-6.062500000000D+00 3.952307486614D-09-3.086721457904D+00
   -2.551823854446D-07 1.231948647182D-02 3.935769200325D-06 5.153776779175D+03
    5.038400000000D+04 1.434236764908D-07-2.371946760509D+00-8.754432201386D-08
    9.821829765034D-01 3.132812500000D+02-1.785106970173D+00-7.781395554930D-09
    1.082187934614D-10 1.000000000000D+00 1.992000000000D+03 0.000000000000D+00
    2.000000000000D+00 0.000000000000D+00-1.117587089539D-08 4.200000000000D+01
    4.351200000000D+04 4.000000000000D+00
19 18  3 11 14  0  0.0-4.515787586570D-04 2.614797267597D-12 0.000000000000D+00
    3.800000000000D+01-7.500000000000D+00 4.087670267874D-09-5.431510248775D-02
   -3.147870302200D-07 9.746755473316D-03 4.351139068604D-06 5.153704179764D+03
    5.040000000000D+04-1.043081283569D-07-2.324789394341D+00 1.545995473862D-07
    9.796136695728D-01 3.076250000000D+02 1.135086817196D+00-8.167483065596D-09
    1.121475285376D-10 1.000000000000D+00 1.992000000000D+03 0.000000000000D+00
    2.000000000000D+00 0.000000000000D+00-1.536682248116D-08 3.800000000000D+01
    4.515600000000D+04 4.000000000000D+00
